[
    {
        "Altitude(m)": 605459.0671819126,
        "Argument of Periapsis(deg)": 0.0,
        "Eccentricity": 0.0,
        "Inclination(deg)": 60.0,
        "Latitude(deg)": 27.988338631505943,
        "Longitude(deg)": 97.79858358259862,
        "Mean Anomaly(deg)": 32.72730000000001,
        "RAAN(deg)": 180.0,
        "Satellite Name": "Test1 794",
        "Satellite Number": 794,
        "Semi-Major Axis(m)": 6980739.136638005,
        "Time(s)": 0
    },
    {
        "Altitude(m)": 605535.8586636801,
        "Argument of Periapsis(deg)": 0.00010418945913296404,
        "Eccentricity": 0.0,
        "Inclination(deg)": 60.0,
        "Latitude(deg)": 28.501468140850214,
        "Longitude(deg)": 98.15552905182143,
        "Mean Anomaly(deg)": 33.34740614546182,
        "RAAN(deg)": 179.99957995086024,
        "Satellite Name": "Test1 794",
        "Satellite Number": 794,
        "Semi-Major Axis(m)": 6980739.136638005,
        "Time(s)": 10
    },
    {
        "Altitude(m)": 605614.340748333,
        "Argument of Periapsis(deg)": 0.0002083789182659281,
        "Eccentricity": 0.0,
        "Inclination(deg)": 60.0,
        "Latitude(deg)": 29.01338012095456,
        "Longitude(deg)": 98.51633938261142,
        "Mean Anomaly(deg)": 33.967512290923665,
        "RAAN(deg)": 179.99915990172053,
        "Satellite Name": "Test1 794",
        "Satellite Number": 794,
        "Semi-Major Axis(m)": 6980739.136638005,
        "Time(s)": 20
    },
    {
        "Altitude(m)": 605694.4557435425,
        "Argument of Periapsis(deg)": 0.00031256837739889213,
        "Eccentricity": 0.0,
        "Inclination(deg)": 60.0,
        "Latitude(deg)": 29.52403729872357,
        "Longitude(deg)": 98.88112633160966,
        "Mean Anomaly(deg)": 34.5876184363855,
        "RAAN(deg)": 179.99873985258077,
        "Satellite Name": "Test1 794",
        "Satellite Number": 794,
        "Semi-Major Axis(m)": 6980739.136638005,
        "Time(s)": 30
    },
    {
        "Altitude(m)": 605776.1453476257,
        "Argument of Periapsis(deg)": 0.0004167578365318562,
        "Eccentricity": 0.0,
        "Inclination(deg)": 60.0,
        "Latitude(deg)": 30.033401404580708,
        "Longitude(deg)": 99.2500046617878,
        "Mean Anomaly(deg)": 35.20772458184732,
        "RAAN(deg)": 179.99831980344103,
        "Satellite Name": "Test1 794",
        "Satellite Number": 794,
        "Semi-Major Axis(m)": 6980739.136638005,
        "Time(s)": 40
    },
    {
        "Altitude(m)": 605859.3506798997,
        "Argument of Periapsis(deg)": 0.0005209472956648203,
        "Eccentricity": 0.0,
        "Inclination(deg)": 60.0,
        "Latitude(deg)": 30.54143313373329,
        "Longitude(deg)": 99.62309120126326,
        "Mean Anomaly(deg)": 35.82783072730915,
        "RAAN(deg)": 179.99789975430127,
        "Satellite Name": "Test1 794",
        "Satellite Number": 794,
        "Semi-Major Axis(m)": 6980739.136638005,
        "Time(s)": 50
    },
    {
        "Altitude(m)": 605944.0123112653,
        "Argument of Periapsis(deg)": 0.0006251367547977843,
        "Eccentricity": 0.0,
        "Inclination(deg)": 60.0,
        "Latitude(deg)": 31.048092106079796,
        "Longitude(deg)": 100.00050541516373,
        "Mean Anomaly(deg)": 36.447936872770974,
        "RAAN(deg)": 179.99747970516157,
        "Satellite Name": "Test1 794",
        "Satellite Number": 794,
        "Semi-Major Axis(m)": 6980739.136638005,
        "Time(s)": 60
    },
    {
        "Altitude(m)": 606030.070295018,
        "Argument of Periapsis(deg)": 0.0007293262139307483,
        "Eccentricity": 0.0,
        "Inclination(deg)": 60.0,
        "Latitude(deg)": 31.553336824718617,
        "Longitude(deg)": 100.38236997750329,
        "Mean Anomaly(deg)": 37.06804301823281,
        "RAAN(deg)": 179.9970596560218,
        "Satellite Name": "Test1 794",
        "Satellite Number": 794,
        "Semi-Major Axis(m)": 6980739.136638005,
        "Time(s)": 70
    },
    {
        "Altitude(m)": 606117.464197831,
        "Argument of Periapsis(deg)": 0.0008335156730637124,
        "Eccentricity": 0.0,
        "Inclination(deg)": 60.0,
        "Latitude(deg)": 32.05712463301822,
        "Longitude(deg)": 100.76880983001071,
        "Mean Anomaly(deg)": 37.68814916369463,
        "RAAN(deg)": 179.99663960688207,
        "Satellite Name": "Test1 794",
        "Satellite Number": 794,
        "Semi-Major Axis(m)": 6980739.136638005,
        "Time(s)": 80
    },
    {
        "Altitude(m)": 606206.1331309654,
        "Argument of Periapsis(deg)": 0.0009377051321966765,
        "Eccentricity": 0.0,
        "Inclination(deg)": 60.0,
        "Latitude(deg)": 32.559411670209236,
        "Longitude(deg)": 101.15995275345072,
        "Mean Anomaly(deg)": 38.308255309156486,
        "RAAN(deg)": 179.9962195577423,
        "Satellite Name": "Test1 794",
        "Satellite Number": 794,
        "Semi-Major Axis(m)": 6980739.136638005,
        "Time(s)": 90
    },
    {
        "Altitude(m)": 606296.0157816211,
        "Argument of Periapsis(deg)": 0.0010418945913296407,
        "Eccentricity": 0.0,
        "Inclination(deg)": 60.0,
        "Latitude(deg)": 33.06015282545954,
        "Longitude(deg)": 101.55592993833199,
        "Mean Anomaly(deg)": 38.92836145461831,
        "RAAN(deg)": 179.9957995086026,
        "Satellite Name": "Test1 794",
        "Satellite Number": 794,
        "Semi-Major Axis(m)": 6980739.136638005,
        "Time(s)": 100
    },
    {
        "Altitude(m)": 606387.0504444619,
        "Argument of Periapsis(deg)": 0.0011460840504626045,
        "Eccentricity": 0.0,
        "Inclination(deg)": 60.0,
        "Latitude(deg)": 33.559301690396275,
        "Longitude(deg)": 101.95687504186182,
        "Mean Anomaly(deg)": 39.548467600080116,
        "RAAN(deg)": 179.9953794594628,
        "Satellite Name": "Test1 794",
        "Satellite Number": 794,
        "Semi-Major Axis(m)": 6980739.136638005,
        "Time(s)": 110
    },
    {
        "Altitude(m)": 606479.1750532632,
        "Argument of Periapsis(deg)": 0.0012502735095955685,
        "Eccentricity": 0.0,
        "Inclination(deg)": 60.0,
        "Latitude(deg)": 34.05681051003788,
        "Longitude(deg)": 102.36292475660862,
        "Mean Anomaly(deg)": 40.16857374554196,
        "RAAN(deg)": 179.99495941032308,
        "Satellite Name": "Test1 794",
        "Satellite Number": 794,
        "Semi-Major Axis(m)": 6980739.136638005,
        "Time(s)": 120
    },
    {
        "Altitude(m)": 606572.3272126957,
        "Argument of Periapsis(deg)": 0.0013544629687285324,
        "Eccentricity": 0.0,
        "Inclination(deg)": 60.0,
        "Latitude(deg)": 34.55263013210281,
        "Longitude(deg)": 102.77421937766843,
        "Mean Anomaly(deg)": 40.788679891003795,
        "RAAN(deg)": 179.99453936118334,
        "Satellite Name": "Test1 794",
        "Satellite Number": 794,
        "Semi-Major Axis(m)": 6980739.136638005,
        "Time(s)": 130
    },
    {
        "Altitude(m)": 606666.444230201,
        "Argument of Periapsis(deg)": 0.0014586524278614966,
        "Eccentricity": 0.0,
        "Inclination(deg)": 60.0,
        "Latitude(deg)": 35.04670995466512,
        "Longitude(deg)": 103.19090185510099,
        "Mean Anomaly(deg)": 41.40878603646562,
        "RAAN(deg)": 179.9941193120436,
        "Satellite Name": "Test1 794",
        "Satellite Number": 794,
        "Semi-Major Axis(m)": 6980739.136638005,
        "Time(s)": 140
    },
    {
        "Altitude(m)": 606761.4631479896,
        "Argument of Periapsis(deg)": 0.0015628418869944607,
        "Eccentricity": 0.0,
        "Inclination(deg)": 60.0,
        "Latitude(deg)": 35.538997872126956,
        "Longitude(deg)": 103.6131183569826,
        "Mean Anomaly(deg)": 42.02889218192745,
        "RAAN(deg)": 179.99369926290385,
        "Satellite Name": "Test1 794",
        "Satellite Number": 794,
        "Semi-Major Axis(m)": 6980739.136638005,
        "Time(s)": 150
    },
    {
        "Altitude(m)": 606857.320775061,
        "Argument of Periapsis(deg)": 0.0016670313461274247,
        "Eccentricity": 0.0,
        "Inclination(deg)": 60.0,
        "Latitude(deg)": 36.02944021948507,
        "Longitude(deg)": 104.04101882975743,
        "Mean Anomaly(deg)": 42.64899832738928,
        "RAAN(deg)": 179.9932792137641,
        "Satellite Name": "Test1 794",
        "Satellite Number": 794,
        "Semi-Major Axis(m)": 6980739.136638005,
        "Time(s)": 160
    },
    {
        "Altitude(m)": 606953.9537193531,
        "Argument of Periapsis(deg)": 0.0017712208052603888,
        "Eccentricity": 0.0,
        "Inclination(deg)": 60.0,
        "Latitude(deg)": 36.51798171487035,
        "Longitude(deg)": 104.4747560425217,
        "Mean Anomaly(deg)": 43.269104472851105,
        "RAAN(deg)": 179.99285916462438,
        "Satellite Name": "Test1 794",
        "Satellite Number": 794,
        "Semi-Major Axis(m)": 6980739.136638005,
        "Time(s)": 170
    },
    {
        "Altitude(m)": 607051.298419863,
        "Argument of Periapsis(deg)": 0.001875410264393353,
        "Eccentricity": 0.0,
        "Inclination(deg)": 60.0,
        "Latitude(deg)": 37.00456540034568,
        "Longitude(deg)": 104.91448614045065,
        "Mean Anomaly(deg)": 43.88921061831296,
        "RAAN(deg)": 179.99243911548464,
        "Satellite Name": "Test1 794",
        "Satellite Number": 794,
        "Semi-Major Axis(m)": 6980739.136638005,
        "Time(s)": 180
    },
    {
        "Altitude(m)": 607149.2911788524,
        "Argument of Periapsis(deg)": 0.0019795997235263173,
        "Eccentricity": 0.0,
        "Inclination(deg)": 60.0,
        "Latitude(deg)": 37.48913258095182,
        "Longitude(deg)": 105.36036919389932,
        "Mean Anomaly(deg)": 44.509316763774784,
        "RAAN(deg)": 179.99201906634488,
        "Satellite Name": "Test1 794",
        "Satellite Number": 794,
        "Semi-Major Axis(m)": 6980739.136638005,
        "Time(s)": 190
    }
]